[{"OBJECT_NAME":"GOES 18","OBJECT_ID":"2022-021A","EPOCH":"2026-04-04T05:50:07.156032","MEAN_MOTION":1.00274048,"ECCENTRICITY":8.101e-5,"INCLINATION":0.0488,"RA_OF_ASC_NODE":36.1429,"ARG_OF_PERICENTER":39.654,"MEAN_ANOMALY":67.298,"EPHEMERIS_TYPE":0,"CLASSIFICATION_TYPE":"U","NORAD_CAT_ID":51850,"ELEMENT_SET_NO":999,"REV_AT_EPOCH":585,"BSTAR":0,"MEAN_MOTION_DOT":9.6e-7,"MEAN_MOTION_DDOT":0},{"OBJECT_NAME":"GOES 19","OBJECT_ID":"2024-119A","EPOCH":"2026-04-04T19:16:26.379840","MEAN_MOTION":1.00271622,"ECCENTRICITY":9.71e-5,"INCLINATION":0.0448,"RA_OF_ASC_NODE":39.4656,"ARG_OF_PERICENTER":21.2278,"MEAN_ANOMALY":346.3323,"EPHEMERIS_TYPE":0,"CLASSIFICATION_TYPE":"U","NORAD_CAT_ID":60133,"ELEMENT_SET_NO":999,"REV_AT_EPOCH":622,"BSTAR":0,"MEAN_MOTION_DOT":-2.48e-6,"MEAN_MOTION_DDOT":0}]
